stk.v.4.3 

BEGIN Ephemeris 
 
NumberOfEphemerisPoints		146 
ScenarioEpoch	    2 Jan 2020  9:46:42.682082355 
InterpolationMethod		Lagrange 
InterpolationOrder		5 
CentralBody				Earth 
CoordinateSystem			TEME 
CoordinateSystemEpoch	  2 Jan 2020  9:46:42.682082355 
DistanceUnit			Kilometers 
 
EphemerisTimePosVel 
 
       0.00000000    2503.67805968   -6706.62243846       0.04438353  0.435721638  0.172733966  7.448899459
 END Ephemeris 
